start=new Date('2023-02-18T00:00:00.000Z').valueOf();
sats=[{"OBJECT_TYPE":"PAYLOAD","EPOCH":"2023-02-17T21:13:25.066560","ELEMENT_SET_NO":"999","PERIOD":"91.639","LAUNCH_DATE":"2023-01-26","MEAN_ANOMALY":"89.4204","REF_FRAME":"TEME","REV_AT_EPOCH":"358","SITE":"AFETR","TLE_LINE1":"1 55370U 23013AR  23048.88431790  .00017021  00000-0  13286-3 0  9990","APOAPSIS":"356.395","PERIAPSIS":"353.535","BSTAR":"0.00013286000000","RA_OF_ASC_NODE":"267.4590","OBJECT_NAME":"STARLINK-5027","EPHEMERIS_TYPE":"0","NORAD_CAT_ID":"55370","SEMIMAJOR_AXIS":"6733.100","MEAN_ELEMENT_THEORY":"SGP4","CLASSIFICATION_TYPE":"U","ARG_OF_PERICENTER":"270.6420","MEAN_MOTION_DOT":"0.00017021","OBJECT_ID":"2023-013AR","INCLINATION":"42.9978","GP_ID":"225839120","DECAY_DATE":null,"COUNTRY_CODE":"US","RCS_SIZE":"MEDIUM","TLE_LINE2":"2 55370  42.9978 267.4590 0002124 270.6420  89.4204 15.71376270  3586","MEAN_MOTION_DDOT":"0.0000000000000","ECCENTRICITY":"0.00021240","TIME_SYSTEM":"UTC","CENTER_NAME":"EARTH","MEAN_MOTION":"15.71376270","FILE":"3804075"},{"MEAN_ELEMENT_THEORY":"SGP4","SEMIMAJOR_AXIS":"6733.136","CLASSIFICATION_TYPE":"U","ARG_OF_PERICENTER":"265.7354","MEAN_MOTION_DOT":"-0.00023110","OBJECT_ID":"2023-013AS","INCLINATION":"42.9996","DECAY_DATE":null,"GP_ID":"225838871","COUNTRY_CODE":"US","RCS_SIZE":"LARGE","ECCENTRICITY":"0.00016060","MEAN_MOTION_DDOT":"0.0000000000000","TLE_LINE2":"2 55371  42.9996 267.2558 0001606 265.7354 281.1707 15.71363530  1306","CENTER_NAME":"EARTH","TIME_SYSTEM":"UTC","MEAN_MOTION":"15.71363530","FILE":"3804075","ELEMENT_SET_NO":"999","EPOCH":"2023-02-17T22:00:00.999936","OBJECT_TYPE":"PAYLOAD","PERIOD":"91.640","LAUNCH_DATE":"2023-01-26","MEAN_ANOMALY":"281.1707","REV_AT_EPOCH":"130","REF_FRAME":"TEME","TLE_LINE1":"1 55371U 23013AS  23048.91667824 -.00023110  00000-0 -17321-3 0  9996","SITE":"AFETR","PERIAPSIS":"353.920","APOAPSIS":"356.082","BSTAR":"-0.00017321000000","RA_OF_ASC_NODE":"267.2558","EPHEMERIS_TYPE":"0","OBJECT_NAME":"STARLINK-5590","NORAD_CAT_ID":"55371"},{"CENTER_NAME":"EARTH","TIME_SYSTEM":"UTC","MEAN_MOTION":"15.71376747","FILE":"3804075","DECAY_DATE":null,"GP_ID":"225840122","COUNTRY_CODE":"US","RCS_SIZE":"LARGE","ECCENTRICITY":"0.00026650","MEAN_MOTION_DDOT":"0.0000000000000","TLE_LINE2":"2 55372  42.9990 267.4566 0002665 251.5965 108.4613 15.71376747  3582","MEAN_MOTION_DOT":"0.00075470","OBJECT_ID":"2023-013AT","INCLINATION":"42.9990","MEAN_ELEMENT_THEORY":"SGP4","SEMIMAJOR_AXIS":"6733.098","CLASSIFICATION_TYPE":"U","ARG_OF_PERICENTER":"251.5965","BSTAR":"0.00057319000000","RA_OF_ASC_NODE":"267.4566","EPHEMERIS_TYPE":"0","OBJECT_NAME":"STARLINK-5568","NORAD_CAT_ID":"55372","PERIAPSIS":"353.169","APOAPSIS":"356.758","MEAN_ANOMALY":"108.4613","REF_FRAME":"TEME","REV_AT_EPOCH":"358","TLE_LINE1":"1 55372U 23013AT  23048.88390307  .00075470  00000-0  57319-3 0  9997","SITE":"AFETR","ELEMENT_SET_NO":"999","OBJECT_TYPE":"PAYLOAD","EPOCH":"2023-02-17T21:12:49.225248","PERIOD":"91.639","LAUNCH_DATE":"2023-01-26"},{"BSTAR":"0.00335530000000","RA_OF_ASC_NODE":"267.4484","EPHEMERIS_TYPE":"0","OBJECT_NAME":"STARLINK-5581","NORAD_CAT_ID":"55373","PERIAPSIS":"348.194","APOAPSIS":"356.627","MEAN_ANOMALY":"106.6013","REF_FRAME":"TEME","REV_AT_EPOCH":"358","TLE_LINE1":"1 55373U 23013AU  23048.88331671  .00484683  00000-0  33553-2 0  9990","SITE":"AFETR","ELEMENT_SET_NO":"999","OBJECT_TYPE":"PAYLOAD","EPOCH":"2023-02-17T21:11:58.563744","PERIOD":"91.587","LAUNCH_DATE":"2023-01-26","CENTER_NAME":"EARTH","TIME_SYSTEM":"UTC","MEAN_MOTION":"15.72270829","FILE":"3804075","GP_ID":"225839873","DECAY_DATE":null,"COUNTRY_CODE":"US","RCS_SIZE":"LARGE","MEAN_MOTION_DDOT":"0.0000000000000","ECCENTRICITY":"0.00062650","TLE_LINE2":"2 55373  42.9991 267.4484 0006265 253.4167 106.6013 15.72270829  3587","MEAN_MOTION_DOT":"0.00484683","INCLINATION":"42.9991","OBJECT_ID":"2023-013AU","SEMIMAJOR_AXIS":"6730.546","MEAN_ELEMENT_THEORY":"SGP4","CLASSIFICATION_TYPE":"U","ARG_OF_PERICENTER":"253.4167"},{"EPOCH":"2023-02-17T21:12:21.125376","OBJECT_TYPE":"PAYLOAD","ELEMENT_SET_NO":"999","LAUNCH_DATE":"2023-01-26","PERIOD":"91.578","MEAN_ANOMALY":"141.6353","SITE":"AFETR","TLE_LINE1":"1 55374U 23013AV  23048.88357784  .00325126  00000-0  22799-2 0  9990","REF_FRAME":"TEME","REV_AT_EPOCH":"358","APOAPSIS":"356.000","PERIAPSIS":"347.908","RA_OF_ASC_NODE":"267.4540","BSTAR":"0.00227990000000","NORAD_CAT_ID":"55374","OBJECT_NAME":"STARLINK-5578","EPHEMERIS_TYPE":"0","SEMIMAJOR_AXIS":"6730.089","MEAN_ELEMENT_THEORY":"SGP4","ARG_OF_PERICENTER":"218.4088","CLASSIFICATION_TYPE":"U","MEAN_MOTION_DOT":"0.00325126","OBJECT_ID":"2023-013AV","INCLINATION":"42.9970","DECAY_DATE":null,"GP_ID":"225838621","TLE_LINE2":"2 55374  42.9970 267.4540 0006012 218.4088 141.6353 15.72430830  3587","MEAN_MOTION_DDOT":"0.0000000000000","ECCENTRICITY":"0.00060120","RCS_SIZE":"MEDIUM","COUNTRY_CODE":"US","TIME_SYSTEM":"UTC","CENTER_NAME":"EARTH","FILE":"3804075","MEAN_MOTION":"15.72430830"},{"REV_AT_EPOCH":"358","REF_FRAME":"TEME","TLE_LINE1":"1 55375U 23013AW  23048.88326736  .00014112  00000-0  11081-3 0  9997","SITE":"AFETR","MEAN_ANOMALY":"108.0441","PERIOD":"91.640","LAUNCH_DATE":"2023-01-26","ELEMENT_SET_NO":"999","OBJECT_TYPE":"PAYLOAD","EPOCH":"2023-02-17T21:11:54.299904","EPHEMERIS_TYPE":"0","OBJECT_NAME":"STARLINK-5588","NORAD_CAT_ID":"55375","BSTAR":"0.00011081000000","RA_OF_ASC_NODE":"267.4495","PERIAPSIS":"353.391","APOAPSIS":"356.579","INCLINATION":"42.9993","OBJECT_ID":"2023-013AW","MEAN_MOTION_DOT":"0.00014112","CLASSIFICATION_TYPE":"U","ARG_OF_PERICENTER":"252.0169","MEAN_ELEMENT_THEORY":"SGP4","SEMIMAJOR_AXIS":"6733.120","MEAN_MOTION":"15.71369182","FILE":"3804075","CENTER_NAME":"EARTH","TIME_SYSTEM":"UTC","RCS_SIZE":"LARGE","COUNTRY_CODE":"US","ECCENTRICITY":"0.00023680","MEAN_MOTION_DDOT":"0.0000000000000","TLE_LINE2":"2 55375  42.9993 267.4495 0002368 252.0169 108.0441 15.71369182  3581","DECAY_DATE":null,"GP_ID":"225839371"},{"ARG_OF_PERICENTER":"256.7895","CLASSIFICATION_TYPE":"U","SEMIMAJOR_AXIS":"6733.109","MEAN_ELEMENT_THEORY":"SGP4","OBJECT_ID":"2023-013AX","INCLINATION":"42.9992","MEAN_MOTION_DOT":"0.00039201","ECCENTRICITY":"0.00024090","MEAN_MOTION_DDOT":"0.0000000000000","TLE_LINE2":"2 55376  42.9992 267.4526 0002409 256.7895 103.2704 15.71373104  3587","RCS_SIZE":"LARGE","COUNTRY_CODE":"US","GP_ID":"225839623","DECAY_DATE":null,"FILE":"3804075","MEAN_MOTION":"15.71373104","CENTER_NAME":"EARTH","TIME_SYSTEM":"UTC","LAUNCH_DATE":"2023-01-26","PERIOD":"91.640","ELEMENT_SET_NO":"999","OBJECT_TYPE":"PAYLOAD","EPOCH":"2023-02-17T21:12:03.756384","TLE_LINE1":"1 55376U 23013AX  23048.88337681  .00039201  00000-0  30073-3 0  9997","SITE":"AFETR","REF_FRAME":"TEME","REV_AT_EPOCH":"358","MEAN_ANOMALY":"103.2704","PERIAPSIS":"353.352","APOAPSIS":"356.596","NORAD_CAT_ID":"55376","EPHEMERIS_TYPE":"0","OBJECT_NAME":"STARLINK-5586","RA_OF_ASC_NODE":"267.4526","BSTAR":"0.00030073000000"},{"MEAN_MOTION":"15.71373292","FILE":"3804075","CENTER_NAME":"EARTH","TIME_SYSTEM":"UTC","COUNTRY_CODE":"US","RCS_SIZE":"LARGE","ECCENTRICITY":"0.00020320","MEAN_MOTION_DDOT":"0.0000000000000","TLE_LINE2":"2 55377  42.9980 267.4421 0002032 260.6988  99.3650 15.71373292  3581","GP_ID":"225840373","DECAY_DATE":null,"INCLINATION":"42.9980","OBJECT_ID":"2023-013AY","MEAN_MOTION_DOT":"-0.00033844","CLASSIFICATION_TYPE":"U","ARG_OF_PERICENTER":"260.6988","MEAN_ELEMENT_THEORY":"SGP4","SEMIMAJOR_AXIS":"6733.108","EPHEMERIS_TYPE":"0","OBJECT_NAME":"STARLINK-5567","NORAD_CAT_ID":"55377","BSTAR":"-0.00025547000000","RA_OF_ASC_NODE":"267.4421","PERIAPSIS":"353.605","APOAPSIS":"356.341","REV_AT_EPOCH":"358","REF_FRAME":"TEME","TLE_LINE1":"1 55377U 23013AY  23048.88248520 -.00033844  00000-0 -25547-3 0  9990","SITE":"AFETR","MEAN_ANOMALY":"99.3650","PERIOD":"91.640","LAUNCH_DATE":"2023-01-26","ELEMENT_SET_NO":"999","OBJECT_TYPE":"PAYLOAD","EPOCH":"2023-02-17T21:10:46.721280"},{"INCLINATION":"42.9984","OBJECT_ID":"2023-013AZ","MEAN_MOTION_DOT":"0.00026815","CLASSIFICATION_TYPE":"U","ARG_OF_PERICENTER":"281.9183","SEMIMAJOR_AXIS":"6733.112","MEAN_ELEMENT_THEORY":"SGP4","MEAN_MOTION":"15.71371878","FILE":"3804075","TIME_SYSTEM":"UTC","CENTER_NAME":"EARTH","COUNTRY_CODE":"US","RCS_SIZE":"LARGE","TLE_LINE2":"2 55378  42.9984 267.4526 0002230 281.9183  78.1435 15.71371878  3589","MEAN_MOTION_DDOT":"0.0000000000000","ECCENTRICITY":"0.00022300","GP_ID":"225839121","DECAY_DATE":null,"REF_FRAME":"TEME","REV_AT_EPOCH":"358","SITE":"AFETR","TLE_LINE1":"1 55378U 23013AZ  23048.88347901  .00026815  00000-0  20712-3 0  9991","MEAN_ANOMALY":"78.1435","PERIOD":"91.640","LAUNCH_DATE":"2023-01-26","OBJECT_TYPE":"PAYLOAD","EPOCH":"2023-02-17T21:12:12.586464","ELEMENT_SET_NO":"999","OBJECT_NAME":"STARLINK-5572","EPHEMERIS_TYPE":"0","NORAD_CAT_ID":"55378","BSTAR":"0.00020712000000","RA_OF_ASC_NODE":"267.4526","APOAPSIS":"356.479","PERIAPSIS":"353.476"},{"FILE":"3804075","MEAN_MOTION":"15.71378994","TIME_SYSTEM":"UTC","CENTER_NAME":"EARTH","TLE_LINE2":"2 55379  42.9989 267.4448 0002069 254.7034 105.3605 15.71378994  3589","MEAN_MOTION_DDOT":"0.0000000000000","ECCENTRICITY":"0.00020690","COUNTRY_CODE":"US","RCS_SIZE":"LARGE","GP_ID":"225838872","DECAY_DATE":null,"OBJECT_ID":"2023-013BA","INCLINATION":"42.9989","MEAN_MOTION_DOT":"-0.00040883","ARG_OF_PERICENTER":"254.7034","CLASSIFICATION_TYPE":"U","MEAN_ELEMENT_THEORY":"SGP4","SEMIMAJOR_AXIS":"6733.092","NORAD_CAT_ID":"55379","OBJECT_NAME":"STARLINK-5569","EPHEMERIS_TYPE":"0","RA_OF_ASC_NODE":"267.4448","BSTAR":"-0.00030951000000","APOAPSIS":"356.350","PERIAPSIS":"353.564","SITE":"AFETR","TLE_LINE1":"1 55379U 23013BA  23048.88280131 -.00040883  00000-0 -30951-3 0  9992","REF_FRAME":"TEME","REV_AT_EPOCH":"358","MEAN_ANOMALY":"105.3605","LAUNCH_DATE":"2023-01-26","PERIOD":"91.639","OBJECT_TYPE":"PAYLOAD","EPOCH":"2023-02-17T21:11:14.033184","ELEMENT_SET_NO":"999"}];
